start=new Date('2022-08-21T00:00:00.000Z').valueOf();
sats=[{"REV_AT_EPOCH":"130","MEAN_ANOMALY":"213.1313","CENTER_NAME":"EARTH","MEAN_MOTION_DDOT":"0.0000000000000","CLASSIFICATION_TYPE":"U","COUNTRY_CODE":"US","RA_OF_ASC_NODE":"210.5440","OBJECT_ID":"2022-053AT","SEMIMAJOR_AXIS":"6917.944","MEAN_MOTION":"15.08819170","EPHEMERIS_TYPE":"0","REF_FRAME":"TEME","RCS_SIZE":"LARGE","NORAD_CAT_ID":"52697","OBJECT_TYPE":"PAYLOAD","PERIAPSIS":"538.492","ECCENTRICITY":"0.00019040","INCLINATION":"53.2162","TLE_LINE2":"2 52697  53.2162 210.5440 0001904  49.1862 213.1313 15.08819170  1308","BSTAR":"0.00183150000000","MEAN_MOTION_DOT":"0.00028964","MEAN_ELEMENT_THEORY":"SGP4","DECAY_DATE":null,"FILE":"3541760","TIME_SYSTEM":"UTC","GP_ID":"210623031","OBJECT_NAME":"STARLINK-4018","APOAPSIS":"541.126","SITE":"AFETR","LAUNCH_DATE":"2022-05-18","ARG_OF_PERICENTER":"49.1862","PERIOD":"95.439","EPOCH":"2022-08-20T22:00:00.999936","ELEMENT_SET_NO":"999","TLE_LINE1":"1 52697U 22053AT  22232.91667824  .00028964  00000-0  18315-2 0  9994"},{"CLASSIFICATION_TYPE":"U","RA_OF_ASC_NODE":"210.5479","COUNTRY_CODE":"US","MEAN_MOTION_DDOT":"0.0000000000000","MEAN_ANOMALY":"146.9980","CENTER_NAME":"EARTH","REV_AT_EPOCH":"130","NORAD_CAT_ID":"52698","OBJECT_TYPE":"PAYLOAD","RCS_SIZE":"LARGE","EPHEMERIS_TYPE":"0","REF_FRAME":"TEME","MEAN_MOTION":"15.08823744","SEMIMAJOR_AXIS":"6917.930","OBJECT_ID":"2022-053AU","TLE_LINE2":"2 52698  53.2156 210.5479 0002333  55.3497 146.9980 15.08823744  1309","BSTAR":"0.00167060000000","INCLINATION":"53.2156","ECCENTRICITY":"0.00023330","PERIAPSIS":"538.181","ELEMENT_SET_NO":"999","TLE_LINE1":"1 52698U 22053AU  22232.91667824  .00026388  00000-0  16706-2 0  9995","LAUNCH_DATE":"2022-05-18","EPOCH":"2022-08-20T22:00:00.999936","PERIOD":"95.439","ARG_OF_PERICENTER":"55.3497","SITE":"AFETR","APOAPSIS":"541.409","OBJECT_NAME":"STARLINK-4030","GP_ID":"210623283","TIME_SYSTEM":"UTC","MEAN_MOTION_DOT":"0.00026388","MEAN_ELEMENT_THEORY":"SGP4","FILE":"3541760","DECAY_DATE":null},{"COUNTRY_CODE":"US","RA_OF_ASC_NODE":"200.5666","CLASSIFICATION_TYPE":"U","CENTER_NAME":"EARTH","MEAN_ANOMALY":"290.0960","REV_AT_EPOCH":"130","MEAN_MOTION_DDOT":"0.0000000000000","REF_FRAME":"TEME","EPHEMERIS_TYPE":"0","OBJECT_TYPE":"PAYLOAD","NORAD_CAT_ID":"52699","RCS_SIZE":"LARGE","SEMIMAJOR_AXIS":"6917.945","OBJECT_ID":"2022-053AV","MEAN_MOTION":"15.08818990","INCLINATION":"53.2127","TLE_LINE2":"2 52699  53.2127 200.5666 0001966  47.2358 290.0960 15.08818990  1308","BSTAR":"0.00152600000000","PERIAPSIS":"538.450","ECCENTRICITY":"0.00019660","SITE":"AFETR","APOAPSIS":"541.170","TLE_LINE1":"1 52699U 22053AV  22232.91667824  .00024068  00000-0  15260-2 0  9993","ELEMENT_SET_NO":"999","EPOCH":"2022-08-20T22:00:00.999936","PERIOD":"95.439","ARG_OF_PERICENTER":"47.2358","LAUNCH_DATE":"2022-05-18","DECAY_DATE":null,"FILE":"3541760","MEAN_ELEMENT_THEORY":"SGP4","MEAN_MOTION_DOT":"0.00024068","OBJECT_NAME":"STARLINK-3987","GP_ID":"210623144","TIME_SYSTEM":"UTC"},{"LAUNCH_DATE":"2022-05-18","EPOCH":"2022-08-20T22:00:00.999936","PERIOD":"95.440","ARG_OF_PERICENTER":"50.0467","ELEMENT_SET_NO":"999","TLE_LINE1":"1 52700U 22053AW  22232.91667824  .00050863  00000-0  31941-2 0  9992","APOAPSIS":"541.388","SITE":"AFETR","TIME_SYSTEM":"UTC","GP_ID":"210622476","OBJECT_NAME":"STARLINK-4034","MEAN_MOTION_DOT":"0.00050863","MEAN_ELEMENT_THEORY":"SGP4","FILE":"3541760","DECAY_DATE":null,"TLE_LINE2":"2 52700  53.2167 210.5516 0002213  50.0467 192.2919 15.08803631  1302","BSTAR":"0.00319410000000","INCLINATION":"53.2167","ECCENTRICITY":"0.00022130","PERIAPSIS":"538.326","RCS_SIZE":"LARGE","NORAD_CAT_ID":"52700","OBJECT_TYPE":"PAYLOAD","EPHEMERIS_TYPE":"0","REF_FRAME":"TEME","MEAN_MOTION":"15.08803631","OBJECT_ID":"2022-053AW","SEMIMAJOR_AXIS":"6917.992","CLASSIFICATION_TYPE":"U","COUNTRY_CODE":"US","RA_OF_ASC_NODE":"210.5516","MEAN_MOTION_DDOT":"0.0000000000000","REV_AT_EPOCH":"130","MEAN_ANOMALY":"192.2919","CENTER_NAME":"EARTH"},{"MEAN_MOTION_DOT":"-0.01072479","MEAN_ELEMENT_THEORY":"SGP4","DECAY_DATE":null,"FILE":"3541760","TIME_SYSTEM":"UTC","GP_ID":"210622618","OBJECT_NAME":"STARLINK-4003","APOAPSIS":"522.172","SITE":"AFETR","LAUNCH_DATE":"2022-05-18","ARG_OF_PERICENTER":"35.0440","PERIOD":"95.048","EPOCH":"2022-08-20T22:00:00.999936","ELEMENT_SET_NO":"999","TLE_LINE1":"1 52701U 22053AX  22232.91667824 -.01072479  00000-0 -61228-1 0  9993","PERIAPSIS":"519.633","ECCENTRICITY":"0.00018400","INCLINATION":"53.2174","BSTAR":"-0.06122800000000","TLE_LINE2":"2 52701  53.2174 195.6271 0001840  35.0440   4.6417 15.15025656  1301","OBJECT_ID":"2022-053AX","SEMIMAJOR_AXIS":"6899.038","MEAN_MOTION":"15.15025656","EPHEMERIS_TYPE":"0","REF_FRAME":"TEME","RCS_SIZE":"LARGE","NORAD_CAT_ID":"52701","OBJECT_TYPE":"PAYLOAD","REV_AT_EPOCH":"130","MEAN_ANOMALY":"4.6417","CENTER_NAME":"EARTH","MEAN_MOTION_DDOT":"0.0000000000000","CLASSIFICATION_TYPE":"U","COUNTRY_CODE":"US","RA_OF_ASC_NODE":"195.6271"},{"EPHEMERIS_TYPE":"0","REF_FRAME":"TEME","NORAD_CAT_ID":"52702","OBJECT_TYPE":"PAYLOAD","RCS_SIZE":"LARGE","SEMIMAJOR_AXIS":"6917.932","OBJECT_ID":"2022-053AY","MEAN_MOTION":"15.08822972","CLASSIFICATION_TYPE":"U","COUNTRY_CODE":"US","RA_OF_ASC_NODE":"210.5436","MEAN_ANOMALY":"220.0439","CENTER_NAME":"EARTH","REV_AT_EPOCH":"130","MEAN_MOTION_DDOT":"0.0000000000000","SITE":"AFETR","APOAPSIS":"541.027","ELEMENT_SET_NO":"999","TLE_LINE1":"1 52702U 22053AY  22232.91667824  .00029808  00000-0  18839-2 0  9990","LAUNCH_DATE":"2022-05-18","PERIOD":"95.439","EPOCH":"2022-08-20T22:00:00.999936","ARG_OF_PERICENTER":"62.2918","MEAN_MOTION_DOT":"0.00029808","MEAN_ELEMENT_THEORY":"SGP4","FILE":"3541760","DECAY_DATE":null,"OBJECT_NAME":"STARLINK-4033","TIME_SYSTEM":"UTC","GP_ID":"210623434","INCLINATION":"53.2171","BSTAR":"0.00188390000000","TLE_LINE2":"2 52702  53.2171 210.5436 0001777  62.2918 220.0439 15.08822972  1306","PERIAPSIS":"538.568","ECCENTRICITY":"0.00017770"},{"COUNTRY_CODE":"US","RA_OF_ASC_NODE":"195.6360","CLASSIFICATION_TYPE":"U","MEAN_MOTION_DDOT":"0.0000000000000","REV_AT_EPOCH":"130","CENTER_NAME":"EARTH","MEAN_ANOMALY":"50.8599","RCS_SIZE":"LARGE","OBJECT_TYPE":"PAYLOAD","NORAD_CAT_ID":"52703","REF_FRAME":"TEME","EPHEMERIS_TYPE":"0","MEAN_MOTION":"15.15911825","OBJECT_ID":"2022-053AZ","SEMIMAJOR_AXIS":"6896.349","BSTAR":"-0.05975400000000","TLE_LINE2":"2 52703  53.2174 195.6360 0001817  39.5453  50.8599 15.15911825  1305","INCLINATION":"53.2174","ECCENTRICITY":"0.00018170","PERIAPSIS":"516.961","PERIOD":"94.992","EPOCH":"2022-08-20T22:00:00.999936","ARG_OF_PERICENTER":"39.5453","LAUNCH_DATE":"2022-05-18","TLE_LINE1":"1 52703U 22053AZ  22232.91667824 -.01073399  00000-0 -59754-1 0  9998","ELEMENT_SET_NO":"999","APOAPSIS":"519.467","SITE":"AFETR","TIME_SYSTEM":"UTC","GP_ID":"210622731","OBJECT_NAME":"STARLINK-4020","FILE":"3541760","DECAY_DATE":null,"MEAN_MOTION_DOT":"-0.01073399","MEAN_ELEMENT_THEORY":"SGP4"},{"PERIAPSIS":"520.617","ECCENTRICITY":"0.00017130","INCLINATION":"53.2175","TLE_LINE2":"2 52704  53.2175 195.6239 0001713  38.7866 343.7173 15.14730431  1309","BSTAR":"-0.06173800000000","MEAN_MOTION_DOT":"-0.01072353","MEAN_ELEMENT_THEORY":"SGP4","DECAY_DATE":null,"FILE":"3541760","TIME_SYSTEM":"UTC","GP_ID":"210622891","OBJECT_NAME":"STARLINK-3999","APOAPSIS":"522.981","SITE":"AFETR","LAUNCH_DATE":"2022-05-18","EPOCH":"2022-08-20T22:00:00.999936","PERIOD":"95.066","ARG_OF_PERICENTER":"38.7866","ELEMENT_SET_NO":"999","TLE_LINE1":"1 52704U 22053BA  22232.91667824 -.01072353  00000-0 -61738-1 0  9993","REV_AT_EPOCH":"130","MEAN_ANOMALY":"343.7173","CENTER_NAME":"EARTH","MEAN_MOTION_DDOT":"0.0000000000000","CLASSIFICATION_TYPE":"U","RA_OF_ASC_NODE":"195.6239","COUNTRY_CODE":"US","OBJECT_ID":"2022-053BA","SEMIMAJOR_AXIS":"6899.934","MEAN_MOTION":"15.14730431","EPHEMERIS_TYPE":"0","REF_FRAME":"TEME","RCS_SIZE":"LARGE","NORAD_CAT_ID":"52704","OBJECT_TYPE":"PAYLOAD"},{"OBJECT_TYPE":"PAYLOAD","NORAD_CAT_ID":"52705","RCS_SIZE":"LARGE","REF_FRAME":"TEME","EPHEMERIS_TYPE":"0","MEAN_MOTION":"15.15616362","SEMIMAJOR_AXIS":"6897.245","OBJECT_ID":"2022-053BB","COUNTRY_CODE":"US","RA_OF_ASC_NODE":"195.6331","CLASSIFICATION_TYPE":"U","MEAN_MOTION_DDOT":"0.0000000000000","CENTER_NAME":"EARTH","MEAN_ANOMALY":"35.4595","REV_AT_EPOCH":"130","TLE_LINE1":"1 52705U 22053BB  22232.91667824 -.01073003  00000-0 -60237-1 0  9990","ELEMENT_SET_NO":"999","ARG_OF_PERICENTER":"38.1769","PERIOD":"95.011","EPOCH":"2022-08-20T22:00:00.999936","LAUNCH_DATE":"2022-05-18","SITE":"AFETR","APOAPSIS":"520.361","OBJECT_NAME":"STARLINK-3844","TIME_SYSTEM":"UTC","GP_ID":"210623032","FILE":"3541760","DECAY_DATE":null,"MEAN_MOTION_DOT":"-0.01073003","MEAN_ELEMENT_THEORY":"SGP4","TLE_LINE2":"2 52705  53.2174 195.6331 0001814  38.1769  35.4595 15.15616362  1300","BSTAR":"-0.06023700000000","INCLINATION":"53.2174","ECCENTRICITY":"0.00018140","PERIAPSIS":"517.859"},{"RA_OF_ASC_NODE":"195.6302","COUNTRY_CODE":"US","CLASSIFICATION_TYPE":"U","MEAN_MOTION_DDOT":"0.0000000000000","CENTER_NAME":"EARTH","MEAN_ANOMALY":"12.0798","REV_AT_EPOCH":"130","OBJECT_TYPE":"PAYLOAD","NORAD_CAT_ID":"52706","RCS_SIZE":"LARGE","REF_FRAME":"TEME","EPHEMERIS_TYPE":"0","MEAN_MOTION":"15.15320979","SEMIMAJOR_AXIS":"6898.141","OBJECT_ID":"2022-053BC","TLE_LINE2":"2 52706  53.2174 195.6302 0001621  44.6501  12.0798 15.15320979  1303","BSTAR":"-0.06072700000000","INCLINATION":"53.2174","ECCENTRICITY":"0.00016210","PERIAPSIS":"518.888","TLE_LINE1":"1 52706U 22053BC  22232.91667824 -.01072641  00000-0 -60727-1 0  9992","ELEMENT_SET_NO":"999","PERIOD":"95.029","EPOCH":"2022-08-20T22:00:00.999936","ARG_OF_PERICENTER":"44.6501","LAUNCH_DATE":"2022-05-18","SITE":"AFETR","APOAPSIS":"521.124","OBJECT_NAME":"STARLINK-3970","GP_ID":"210623284","TIME_SYSTEM":"UTC","FILE":"3541760","DECAY_DATE":null,"MEAN_MOTION_DOT":"-0.01072641","MEAN_ELEMENT_THEORY":"SGP4"}];
